SHIYAN-24C 01           
1 58650U 23206A   26068.89348774  .00002076  00000+0  18089-3 0  9992
2 58650  97.3976  41.7846 0003675 132.3262 227.8273 14.97903598120444
STARLINK-33901          
1 63878U 25094Q   26068.85112424  .00011919  00000+0  10054-2 0  9993
2 63878  70.0016 234.1936 0003091 241.9102 118.1745 14.98313761 47223
